{
  "type": "FeatureCollection",
  "features": [
    {
      "type": "Feature",
      "properties": {
        "norad_id": 30314,
        "name": "FENGYUN 1C DEB",
        "group": "fengyun-1c-debris",
        "lat": 28.73939120696785,
        "lon": 165.84028429022894,
        "alt_km": 786.0462969727814,
        "timestamp": "2025-12-04T23:34:05.998074+00:00",
        "meta_object_name": "FENGYUN 1C DEB",
        "meta_object_id": "1999-025AAB",
        "meta_epoch": "2025-12-03T11:26:37.365504",
        "meta_mean_motion": 14.01143232,
        "meta_eccentricity": 0.01426909,
        "meta_inclination": 98.3813,
        "meta_ra_of_asc_node": 169.0949,
        "meta_arg_of_pericenter": 24.0355,
        "meta_mean_anomaly": 336.7387,
        "meta_ephemeris_type": 0,
        "meta_classification_type": "U",
        "meta_norad_cat_id": 30314,
        "meta_element_set_no": 999,
        "meta_rev_at_epoch": 95979,
        "meta_bstar": 0.001378203,
        "meta_mean_motion_dot": 2.223e-05,
        "meta_mean_motion_ddot": 0,
        "tle_line1": "1 30314U 99025AAB 25337.47682136  .00002223  00000+0  13782-2 0  9994",
        "tle_line2": "2 30314  98.3813 169.0949 0142690  24.0355 336.7387 14.01143232959791"
      },
      "geometry": {
        "type": "Point",
        "coordinates": [
          165.84028429022894,
          28.73939120696785
        ]
      }
    },
    {
      "type": "Feature",
      "properties": {
        "norad_id": 30315,
        "name": "FENGYUN 1C DEB",
        "group": "fengyun-1c-debris",
        "lat": 54.08837964823987,
        "lon": -23.3440939094222,
        "alt_km": 801.6876055235125,
        "timestamp": "2025-12-04T23:34:05.998084+00:00",
        "meta_object_name": "FENGYUN 1C DEB",
        "meta_object_id": "1999-025AAC",
        "meta_epoch": "2025-12-03T23:52:11.591904",
        "meta_mean_motion": 14.19045338,
        "meta_eccentricity": 0.00357302,
        "meta_inclination": 98.6023,
        "meta_ra_of_asc_node": 347.7628,
        "meta_arg_of_pericenter": 25.3975,
        "meta_mean_anomaly": 27.9142,
        "meta_ephemeris_type": 0,
        "meta_classification_type": "U",
        "meta_norad_cat_id": 30315,
        "meta_element_set_no": 999,
        "meta_rev_at_epoch": 97583,
        "meta_bstar": 0.00051655855,
        "meta_mean_motion_dot": 1.043e-05,
        "meta_mean_motion_ddot": 0,
        "tle_line1": "1 30315U 99025AAC 25337.99457861  .00001043  00000+0  51656-3 0  9999",
        "tle_line2": "2 30315  98.6023 347.7628 0035730  25.3975  27.9142 14.19045338975833"
      },
      "geometry": {
        "type": "Point",
        "coordinates": [
          -23.3440939094222,
          54.08837964823987
        ]
      }
    },
    {
      "type": "Feature",
      "properties": {
        "norad_id": 30316,
        "name": "FENGYUN 1C DEB",
        "group": "fengyun-1c-debris",
        "lat": 20.485799409453943,
        "lon": -95.62411703064747,
        "alt_km": 708.6419818210861,
        "timestamp": "2025-12-04T23:34:05.998094+00:00",
        "meta_object_name": "FENGYUN 1C DEB",
        "meta_object_id": "1999-025AAD",
        "meta_epoch": "2025-12-04T06:20:53.515392",
        "meta_mean_motion": 14.55813179,
        "meta_eccentricity": 0.0036224,
        "meta_inclination": 98.649,
        "meta_ra_of_asc_node": 80.3728,
        "meta_arg_of_pericenter": 66.5336,
        "meta_mean_anomaly": 293.9661,
        "meta_ephemeris_type": 0,
        "meta_classification_type": "U",
        "meta_norad_cat_id": 30316,
        "meta_element_set_no": 999,
        "meta_rev_at_epoch": 98213,
        "meta_bstar": 0.0056241,
        "meta_mean_motion_dot": 0.00024902,
        "meta_mean_motion_ddot": 0,
        "tle_line1": "1 30316U 99025AAD 25338.26450828  .00024902  00000+0  56241-2 0  9990",
        "tle_line2": "2 30316  98.6490  80.3728 0036224  66.5336 293.9661 14.55813179982138"
      },
      "geometry": {
        "type": "Point",
        "coordinates": [
          -95.62411703064747,
          20.485799409453943
        ]
      }
    },
    {
      "type": "Feature",
      "properties": {
        "norad_id": 30317,
        "name": "FENGYUN 1C DEB",
        "group": "fengyun-1c-debris",
        "lat": 24.355964611276036,
        "lon": -24.33953554793476,
        "alt_km": 867.6043811071231,
        "timestamp": "2025-12-04T23:34:05.998104+00:00",
        "meta_object_name": "FENGYUN 1C DEB",
        "meta_object_id": "1999-025AAE",
        "meta_epoch": "2025-12-04T13:12:39.582432",
        "meta_mean_motion": 14.06941185,
        "meta_eccentricity": 0.0024259,
        "meta_inclination": 98.7863,
        "meta_ra_of_asc_node": 339.256,
        "meta_arg_of_pericenter": 300.883,
        "meta_mean_anomaly": 58.9954,
        "meta_ephemeris_type": 0,
        "meta_classification_type": "U",
        "meta_norad_cat_id": 30317,
        "meta_element_set_no": 999,
        "meta_rev_at_epoch": 96898,
        "meta_bstar": 0.00022279,
        "meta_mean_motion_dot": 3.29e-06,
        "meta_mean_motion_ddot": 0,
        "tle_line1": "1 30317U 99025AAE 25338.55045813  .00000329  00000+0  22279-3 0  9999",
        "tle_line2": "2 30317  98.7863 339.2560 0024259 300.8830  58.9954 14.06941185968988"
      },
      "geometry": {
        "type": "Point",
        "coordinates": [
          -24.33953554793476,
          24.355964611276036
        ]
      }
    },
    {
      "type": "Feature",
      "properties": {
        "norad_id": 30320,
        "name": "FENGYUN 1C DEB",
        "group": "fengyun-1c-debris",
        "lat": -22.19885505227831,
        "lon": 42.053830559647075,
        "alt_km": 846.151838938229,
        "timestamp": "2025-12-04T23:34:05.998114+00:00",
        "meta_object_name": "FENGYUN 1C DEB",
        "meta_object_id": "1999-025AAH",
        "meta_epoch": "2025-12-04T03:12:22.514688",
        "meta_mean_motion": 13.98551413,
        "meta_eccentricity": 0.0085396,
        "meta_inclination": 99.1896,
        "meta_ra_of_asc_node": 37.4163,
        "meta_arg_of_pericenter": 318.5037,
        "meta_mean_anomaly": 69.4614,
        "meta_ephemeris_type": 0,
        "meta_classification_type": "U",
        "meta_norad_cat_id": 30320,
        "meta_element_set_no": 999,
        "meta_rev_at_epoch": 96287,
        "meta_bstar": 0.0001791248,
        "meta_mean_motion_dot": 2.19e-06,
        "meta_mean_motion_ddot": 0,
        "tle_line1": "1 30320U 99025AAH 25338.13359392  .00000219  00000+0  17912-3 0  9993",
        "tle_line2": "2 30320  99.1896  37.4163 0085396 318.5037  69.4614 13.98551413962876"
      },
      "geometry": {
        "type": "Point",
        "coordinates": [
          42.053830559647075,
          -22.19885505227831
        ]
      }
    },
    {
      "type": "Feature",
      "properties": {
        "norad_id": 30321,
        "name": "FENGYUN 1C DEB",
        "group": "fengyun-1c-debris",
        "lat": -64.3724452097393,
        "lon": 139.71462707524807,
        "alt_km": 802.019090663438,
        "timestamp": "2025-12-04T23:34:05.998124+00:00",
        "meta_object_name": "FENGYUN 1C DEB",
        "meta_object_id": "1999-025AAJ",
        "meta_epoch": "2025-12-04T12:49:51.892032",
        "meta_mean_motion": 14.16624522,
        "meta_eccentricity": 0.0059819,
        "meta_inclination": 98.656,
        "meta_ra_of_asc_node": 337.7943,
        "meta_arg_of_pericenter": 260.7287,
        "meta_mean_anomaly": 224.8518,
        "meta_ephemeris_type": 0,
        "meta_classification_type": "U",
        "meta_norad_cat_id": 30321,
        "meta_element_set_no": 999,
        "meta_rev_at_epoch": 97427,
        "meta_bstar": 0.00056377,
        "meta_mean_motion_dot": 1.101e-05,
        "meta_mean_motion_ddot": 0,
        "tle_line1": "1 30321U 99025AAJ 25338.53462838  .00001101  00000+0  56377-3 0  9997",
        "tle_line2": "2 30321  98.6560 337.7943 0059819 260.7287 224.8518 14.16624522974277"
      },
      "geometry": {
        "type": "Point",
        "coordinates": [
          139.71462707524807,
          -64.3724452097393
        ]
      }
    },
    {
      "type": "Feature",
      "properties": {
        "norad_id": 30322,
        "name": "FENGYUN 1C DEB",
        "group": "fengyun-1c-debris",
        "lat": -10.632219815964703,
        "lon": 15.638133519496405,
        "alt_km": 867.443675423393,
        "timestamp": "2025-12-04T23:34:05.998134+00:00",
        "meta_object_name": "FENGYUN 1C DEB",
        "meta_object_id": "1999-025AAK",
        "meta_epoch": "2025-12-04T14:06:40.974336",
        "meta_mean_motion": 14.0603963,
        "meta_eccentricity": 0.0127138,
        "meta_inclination": 98.3988,
        "meta_ra_of_asc_node": 196.8618,
        "meta_arg_of_pericenter": 276.4485,
        "meta_mean_anomaly": 82.2221,
        "meta_ephemeris_type": 0,
        "meta_classification_type": "U",
        "meta_norad_cat_id": 30322,
        "meta_element_set_no": 999,
        "meta_rev_at_epoch": 96085,
        "meta_bstar": 0.0028491,
        "meta_mean_motion_dot": 4.989e-05,
        "meta_mean_motion_ddot": 0,
        "tle_line1": "1 30322U 99025AAK 25338.58797424  .00004989  00000+0  28491-2 0  9997",
        "tle_line2": "2 30322  98.3988 196.8618 0127138 276.4485  82.2221 14.06039630960851"
      },
      "geometry": {
        "type": "Point",
        "coordinates": [
          15.638133519496405,
          -10.632219815964703
        ]
      }
    }
  ]
}